IRIDIUM 150             
1 43257U 18030J   23239.87652661  .00000318  00000+0  10660-3 0  9990
2 43257  86.4022 358.5547 0002488  89.0626 271.0855 14.34219420283343
IRIDIUM 143             
1 43258U 18030K   23239.85749544  .00000317  00000+0  10624-3 0  9995
2 43258  86.4026 358.6141 0002085  88.1351 272.0083 14.34218257283270
IRIDIUM 161             
1 43478U 18047C   23239.80581932  .00000430  00000+0  12193-3 0  9996
2 43478  86.4552 156.6155 0002390  85.1545 274.9928 14.43275414277382
IRIDIUM 152             
1 43479U 18047D   23239.83021414  .00000321  00000+0  10771-3 0  9993
2 43479  86.4026 156.4657 0002102  78.7346 281.4086 14.34218893275667
IRIDIUM 147             
1 43480U 18047E   23239.83655405  .00000180  00000+0  57120-4 0  9991
2 43480  86.4030 156.4506 0002223  88.4109 271.7342 14.34216575275668
IRIDIUM 110             
1 43481U 18047F   23239.84289800  .00000366  00000+0  12378-3 0  9996
2 43481  86.4033 156.5129 0002518  87.3107 272.8377 14.34218196275657
IRIDIUM 162             
1 43482U 18047G   23239.79954119  .00000025  00000+0  15740-5 0  9993
2 43482  86.4553 156.5228 0002364  83.2963 276.8506 14.43276347277370
IRIDIUM 160             
1 43569U 18061A   23239.78873740  .00000245  00000+0  80346-4 0  9991
2 43569  86.3975 124.9371 0001874  84.6092 275.5317 14.34215992266546
